# From MPC106342
C/1995 O1 (Hale-Bopp),e,89.0465,283.2406,130.5099,178.6230,0.0004129,0.99495188,0.0000,03/29.7412/1997,2000,g -2.0,4.0
# From NK 1615
P/1996 R2 (Lagerkvist),e,2.6004,40.0249,333.3189,3.775021,0.1343770,0.31415941,107.2640,04/20.0/2021,2000,g 11.5,4.0
# From MPC 30063
P/1997 B1 (Kobayashi),e,12.3395,328.8822,183.3434,8.572733,0.0392668,0.76019081,346.5405,04/20.0/2021,2000,g 15.0,2.0
# From MPC 75703
P/1998 VS24 (LINEAR),e,5.0259,159.0339,244.6384,4.528677,0.1022697,0.24218794,121.4874,04/20.0/2021,2000,g 13.0,2.0
# From NK 731
P/1999 RO28 (LONEOS),e,7.5672,137.8852,231.2648,3.426731,0.1553761,0.67217635,103.1384,04/20.0/2021,2000,g 20.0,2.0
# From MPC 75704
P/1999 XN120 (Catalina),e,5.0297,285.2961,161.8535,4.179012,0.1153702,0.21025422,162.6682,04/20.0/2021,2000,g 13.5,2.0
# From NK 744
P/2000 R2 (LINEAR),e,11.6856,160.2894,176.5328,3.466500,0.1527100,0.53160004,102.6996,04/20.0/2021,2000,g 18.0,4.0
# From MPC 43019
P/2001 H5 (NEAT),e,8.3669,328.6835,224.8560,6.097920,0.0654533,0.59848954,131.5881,04/20.0/2021,2000,g 12.0,4.0
# From MPC 75704
P/2001 Q6 (NEAT),e,56.9069,22.1486,42.9347,7.952653,0.0439477,0.82291942,314.0797,04/20.0/2021,2000,g 13.5,4.0
# From MPC 47727
P/2002 EJ57 (LINEAR),e,4.9762,330.3259,167.3639,6.471420,0.0598694,0.59252004,62.0753,04/20.0/2021,2000,g 12.5,4.0
# From MPC109588
P/2002 T6 (NEAT-LINEAR),e,10.8353,206.3276,219.6491,7.679302,0.0463150,0.56047776,304.8985,04/20.0/2021,2000,g 10.5,4.0
# From MPC 75007
C/2002 VQ94 (LINEAR),e,70.5957,35.0413,100.1381,185.3294,0.0003906,0.96313864,2.1727,04/20.0/2021,2000,g  9.5,2.0
# From MPC 50354
P/2003 F2 (NEAT),e,11.6051,359.0469,192.0346,6.496384,0.0595246,0.54232976,31.2166,04/20.0/2021,2000,g 16.5,2.0
# From MPC 50139
P/2003 QX29 (NEAT),e,11.3899,264.5749,37.4650,8.029105,0.0433215,0.47299877,292.0631,04/20.0/2021,2000,g  8.5,4.0
# From MPC105235
P/2003 T12 (SOHO),e,11.0186,174.5750,219.7606,2.586035,0.2370022,0.76971451,82.5048,04/20.0/2021,2000,g 17.0,4.0
# From MPC 82312
P/2004 A1 (LONEOS),e,10.5516,124.8470,21.3381,7.959299,0.0438927,0.30931893,267.6969,04/20.0/2021,2000,g  6.5,4.0
# From MPC 54558
P/2004 DO29 (Spacewatch-LINEAR),e,14.5321,147.3743,40.6882,7.284658,0.0501291,0.44119367,302.7708,04/20.0/2021,2000,g 13.5,2.0
# From MPC 54823
P/2004 FY140 (LINEAR),e,2.1348,326.7617,242.4197,4.902813,0.0907896,0.16835667,190.4118,04/20.0/2021,2000,g 12.5,2.0
# From MPC 53304
P/2004 R3 (LINEAR-NEAT),e,12.8146,305.4767,38.1673,4.796630,0.0938209,0.26067779,345.2266,04/20.0/2021,2000,g 14.5,4.0
# From MPC 55521
P/2004 V3 (Siding Spring),e,50.4385,356.1214,322.3368,7.141692,0.0516419,0.44634022,311.1412,04/20.0/2021,2000,g 11.5,4.0
# From MPC 75705
P/2004 V5 (LINEAR-Hill),e,19.3428,47.7802,87.7273,7.978544,0.0437339,0.44356848,258.8951,04/20.0/2021,2000,g  8.0,4.0
# From MPC 54164
P/2005 E1 (Tubbiolo),e,4.2637,335.5687,194.0770,7.039603,0.0527694,0.37514035,312.8924,04/20.0/2021,2000,g 10.0,4.0
# From MPC 54823
P/2005 GF8 (LONEOS),e,1.1918,314.8079,284.8449,5.842637,0.0697896,0.51765258,39.7366,04/20.0/2021,2000,g 11.5,4.0
# From MPC 79019
P/2005 J1 (McNaught),e,31.7629,268.8093,338.9618,3.570264,0.1461011,0.56969501,134.4757,04/20.0/2021,2000,g 16.5,4.0
# From MPC 74246
P/2005 L1 (McNaught),e,7.7385,138.2481,149.7203,3.975409,0.1243459,0.20946296,335.5393,04/20.0/2021,2000,g  9.5,4.0
# From MPC 75706
P/2005 S2 (Skiff),e,3.1357,161.2063,229.1568,8.015560,0.0434313,0.19727169,237.1484,04/20.0/2021,2000,g  7.5,4.0
# From MPC 75706
P/2005 SB216 (LONEOS),e,24.0818,1.2040,83.3705,7.130336,0.0517653,0.46359398,270.1947,04/20.0/2021,2000,g 12.0,2.0
# From MPC 55717
P/2005 T2 (Christensen),e,8.2923,260.1591,58.8282,3.846382,0.1306548,0.41638646,49.2043,04/20.0/2021,2000,g 14.5,4.0
# From MPC 73461
P/2005 T3 (Read),e,6.2240,27.7226,6.8719,7.581129,0.0472175,0.17428426,268.0184,04/20.0/2021,2000,g  9.0,4.0
# From MPC 73461
P/2005 T4 (SWAN),e,160.2040,25.7323,41.6367,9.361225,0.0344116,0.92980382,195.5040,04/20.0/2021,2000,g 15.0,4.0
# From MPC 75706
P/2005 T5 (Broughton),e,21.3585,57.0033,304.5544,7.290058,0.0500735,0.55223294,284.0698,04/20.0/2021,2000,g 11.0,4.0
# From MPC 56954
P/2005 W3 (Kowalski),e,16.4199,210.0856,200.7187,6.329273,0.0618975,0.54337872,350.4766,04/20.0/2021,2000,g 12.0,4.0
# From MPC 75706
P/2005 Y2 (McNaught),e,19.0689,94.4552,193.9433,6.386112,0.0610730,0.47075431,11.1129,04/20.0/2021,2000,g  9.0,4.0
# From MPC 56954
P/2006 F4 (Spacewatch),e,12.4171,183.8391,31.0280,3.523481,0.1490206,0.33985101,93.3649,04/20.0/2021,2000,g 15.0,4.0
# From MPC 75707
P/2006 HR30 (Siding Spring),e,31.8300,309.9021,117.2896,7.811222,0.0451467,0.84222360,236.6613,04/20.0/2021,2000,g 11.0,4.0
# From MPC 75707
P/2006 S4 (Christensen),e,39.5321,36.0849,305.1458,6.314876,0.0621093,0.50827401,343.2546,04/20.0/2021,2000,g 11.0,4.0
# From MPC 75707
P/2007 A2 (Christensen),e,26.4877,300.9072,186.7383,6.327250,0.0619272,0.55770395,323.5697,04/20.0/2021,2000,g 13.5,4.0
# From MPC 75707
P/2007 C2 (Catalina),e,8.6424,275.5480,179.9999,6.992431,0.0533042,0.47065999,263.9645,04/20.0/2021,2000,g 10.0,4.0
# From MPC 84315
C/2007 D1 (LINEAR),e,41.5017,171.2010,340.0408,1445,0.0000179,0.99389223,0.0000,06/08.7623/2007,2000,g  3.5,4.0
# From MPC 82314
P/2007 K2 (Gibbs),e,7.6332,188.6436,347.4473,7.264844,0.0503344,0.68315166,255.2294,04/20.0/2021,2000,g 14.0,4.0
# From MPC 60925
P/2007 Q2 (Gilmore),e,10.2027,172.1601,162.7759,5.652680,0.0733369,0.67012419,10.5628,04/20.0/2021,2000,g 16.0,4.0
# From MPC 75708
P/2007 R4 (Garradd),e,20.2169,87.2176,282.6047,5.933633,0.0681904,0.67018183,344.1281,04/20.0/2021,2000,g 14.5,4.0
# From MPC 73462
P/2007 S1 (Zhao),e,5.9637,141.3731,245.6474,3.815171,0.1322614,0.33957934,289.0679,04/20.0/2021,2000,g 13.0,4.0
# From MPC 61994
P/2007 T2 (Kowalski),e,9.7477,3.3746,359.6379,3.046974,0.1853109,0.78536297,185.5166,04/20.0/2021,2000,g 18.5,4.0
# From MPC 75708
P/2008 CL94 (Lemmon),e,8.3467,33.3234,80.4454,6.162291,0.0644304,0.12042567,350.0905,04/20.0/2021,2000,g  8.0,4.0
# From MPC 75709
P/2008 L2 (Hill),e,25.8609,218.0077,141.2212,6.028469,0.0665876,0.61316154,309.9834,04/20.0/2021,2000,g 12.5,4.0
# From MPC 64114
P/2008 O3 (Boattini),e,32.2666,47.5893,341.0970,8.221688,0.0418083,0.69537714,197.0864,04/20.0/2021,2000,g 13.0,4.0
# From MPC 75709
P/2008 QP20 (LINEAR-Hill),e,7.5227,322.0724,75.5474,3.553960,0.1471076,0.49191859,322.1742,04/20.0/2021,2000,g 15.5,4.0
# From MPC 66204
P/2008 WZ96 (LINEAR),e,7.1114,56.4507,341.9183,3.488017,0.1512991,0.46996823,340.5186,04/20.0/2021,2000,g 13.5,4.0
# From MPC 75710
P/2008 Y3 (McNaught),e,38.7658,262.7997,238.2220,8.046668,0.0431797,0.44546452,194.3412,04/20.0/2021,2000,g  8.5,4.0
# From MPC 75710
P/2009 B1 (Boattini),e,22.2200,297.0902,128.8817,6.736713,0.0563679,0.63480143,252.9200,04/20.0/2021,2000,g 13.0,4.0
# From MPC 66466
C/2009 G1 (STEREO),e,108.7360,120.4390,175.4151,435.0129,0.0001086,0.99738777,0.0000,04/15.7309/2009,2000,g  9.0,4.0
# From MPC 75710
P/2009 O3 (Hill),e,16.2718,183.7053,154.4124,7.769549,0.0455104,0.68771530,198.0117,04/20.0/2021,2000,g 12.5,4.0
# From MPEC 2021-F20
P/2009 Q1 (Hill),e,14.5029,173.9606,157.1459,5.519960,0.0759976,0.49483350,329.7619,04/20.0/2021,2000,g 11.5,4.0
# From MPC 68902
P/2009 Q5 (McNaught),e,40.9819,160.2719,209.0256,7.436475,0.0486019,0.60897263,206.3429,04/20.0/2021,2000,g 10.0,4.0
# From MPC112389
P/2009 T2 (La Sagra),e,27.5597,215.8137,216.3931,7.723493,0.0459180,0.76529934,189.7247,04/20.0/2021,2000,g 14.0,4.0
# From MPC 75711
P/2009 U4 (McNaught),e,10.0806,55.3496,259.8360,5.082458,0.0860188,0.67603435,6.7020,04/20.0/2021,2000,g 14.0,4.0
# From MPC105235
P/2009 WX51 (Catalina),e,9.5951,31.6806,118.0810,3.080686,0.1822775,0.74028762,28.1870,04/20.0/2021,2000,g 19.0,2.0
# From MPC 74247
P/2009 Y2 (Kowalski),e,29.9327,262.0251,172.1522,6.549731,0.0587989,0.63599083,239.1974,04/20.0/2021,2000,g 13.0,4.0
# From MPC 75711
P/2010 A3 (Hill),e,14.8452,63.9392,42.0647,6.077351,0.0657859,0.73343189,266.3826,04/20.0/2021,2000,g 14.0,4.0
# From MPC 75008
P/2010 C1 (Scotti),e,9.1281,141.8859,3.7010,7.103421,0.0520598,0.25873697,217.3837,04/20.0/2021,2000,g  9.5,4.0
# From MPC 75008
P/2010 D2 (WISE),e,57.0852,319.8914,120.0543,6.716625,0.0566210,0.45096009,231.1897,04/20.0/2021,2000,g 16.0,4.0
# From MPC 75009
P/2010 E2 (Jarnac),e,15.3982,177.8239,8.3639,8.638837,0.0388169,0.71997024,156.6766,04/20.0/2021,2000,g 14.0,4.0
# From MPC 72851
P/2010 H2 (Vales),e,14.2738,64.1999,128.1369,3.833802,0.1312984,0.19580055,173.2163,04/20.0/2021,2000,g  6.0,4.0
# From MPC 70361
P/2010 H3 (SOHO),e,23.0860,77.1004,26.1395,3.037823,0.1861489,0.98538330,0.0000,02/07.9647/2021,2000,g 20.0,2.0
# From MPC 73463
P/2010 H4 (Scotti),e,2.3186,44.7422,179.5402,6.591395,0.0582422,0.26722452,230.5475,04/20.0/2021,2000,g 10.5,4.0
# From MPC 74637
P/2010 H5 (Scotti),e,14.0641,24.8061,175.2099,7.161309,0.0514299,0.15330244,207.3632,04/20.0/2021,2000,g 13.0,2.0
# From MPC 98558
P/2010 J3 (McMillan),e,13.2869,106.4159,157.5955,8.972314,0.0366731,0.72697856,142.5200,04/20.0/2021,2000,g 11.0,4.0
# From MPC 84315
P/2010 JC81 (WISE),e,38.7439,30.8472,12.4329,8.109922,0.0426755,0.77694688,155.9035,04/20.0/2021,2000,g  9.0,4.0
# From MPC 74248
P/2010 T2 (PANSTARRS),e,7.9013,58.9215,353.4538,5.525500,0.0758834,0.32150704,278.9149,04/20.0/2021,2000,g 11.5,4.0
# From MPC 98558
P/2010 TO20 (LINEAR-Grauer),e,2.4790,43.2943,266.8027,5.830297,0.0700113,0.05490194,319.4737,04/20.0/2021,2000,g  9.0,4.0
# From MPC 82316
P/2010 U1 (Boattini),e,8.2149,280.7103,85.9472,6.510173,0.0593356,0.24832967,243.4689,04/20.0/2021,2000,g  9.5,4.0
# From MPEC 2021-FB5
C/2010 U3 (Boattini),e,55.5266,43.0240,88.0640,2302,0.0000089,0.99633242,0.0000,02/25.6666/2019,2000,g  1.0,4.0
# From MPC 79021
P/2010 UH55 (Spacewatch),e,8.0425,232.9582,225.1775,6.652286,0.0574444,0.56339267,210.3375,04/20.0/2021,2000,g 11.0,4.0
# From MPC 75009
P/2010 WK (LINEAR),e,11.4009,11.3213,40.9754,5.761097,0.0712765,0.68991627,275.2416,04/20.0/2021,2000,g 14.5,2.0
# From MPC 82317
